STARLINK-35270          
1 65882U 25224A   25301.66674769 -.02075262  00000+0 -33389-1 0  9998
2 65882  53.1597 267.0265 0001275  86.6044  22.8409 15.55587111  4617
STARLINK-35367          
1 65883U 25224B   25301.66674769 -.02068203  00000+0 -33266-1 0  9990
2 65883  53.1597 267.0188 0001400  83.2179  30.0630 15.55582783  4611
STARLINK-35384          
1 65884U 25224C   25301.66674769 -.02069512  00000+0 -33287-1 0  9998
2 65884  53.1598 267.0094 0001357  83.2163  33.8967 15.55584919  4610
STARLINK-35415          
1 65885U 25224D   25301.66674769 -.02067164  00000+0 -33247-1 0  9996
2 65885  53.1598 267.0020 0001314  87.0197  33.9269 15.55584029  4564
STARLINK-35413          
1 65886U 25224E   25301.66674769 -.02065453  00000+0 -33218-1 0  9994
2 65886  53.1596 266.9936 0001447  88.0542  36.7279 15.55580708  4561
STARLINK-35332          
1 65887U 25224F   25301.66674769 -.02063165  00000+0 -33180-1 0  9991
2 65887  53.1598 266.9894 0001333  88.1603  38.5404 15.55579305  4640
STARLINK-35362          
1 65888U 25224G   25301.66674769 -.02069192  00000+0 -33282-1 0  9991
2 65888  53.1599 267.0215 0001337  88.2549  23.1073 15.55584626  4616
STARLINK-35193          
1 65889U 25224H   25301.66674769 -.02041188  00000+0 -32795-1 0  9995
2 65889  53.1593 266.7520 0001456  97.7528 143.2135 15.55569834  4640
STARLINK-34542          
1 65890U 25224J   25301.66674769 -.02065759  00000+0 -33225-1 0  9996
2 65890  53.1599 267.0132 0001306  83.3954  31.8036 15.55581429  4667
STARLINK-34791          
1 65891U 25224K   25301.66674769 -.02042536  00000+0 -32817-1 0  9991
2 65891  53.1595 266.7600 0001517  97.8614 139.2701 15.55570666  4660
STARLINK-34853          
1 65892U 25224L   25301.66674769 -.02070822  00000+0 -33311-1 0  9991
2 65892  53.1598 267.0056 0001374  83.7590  35.2714 15.55584998  4595
STARLINK-34921          
1 65893U 25224M   25301.66674769 -.02044262  00000+0 -32848-1 0  9995
2 65893  53.1593 266.7479 0001442 102.0651 140.8169 15.55571581  4664
STARLINK-34672          
1 65894U 25224N   25301.66674769 -.02027911  00000+0 -32564-1 0  9993
2 65894  53.1596 266.7564 0001491  93.6576 145.3944 15.55562515  4666
STARLINK-34898          
1 65895U 25224P   25301.66674769 -.02040045  00000+0 -32773-1 0  9999
2 65895  53.1593 266.7396 0001558 102.7192 143.9960 15.55569724  4668
STARLINK-34906          
1 65896U 25224Q   25301.66674769 -.02045806  00000+0 -32875-1 0  9993
2 65896  53.1595 266.7439 0001394 101.8535 142.9453 15.55572483  4660
STARLINK-34934          
1 65897U 25224R   25301.66674769 -.02034072  00000+0 -32669-1 0  9998
2 65897  53.1592 266.7317 0001527 103.6624 146.8867 15.55567502  4613
STARLINK-34936          
1 65898U 25224S   25301.66674769 -.02037213  00000+0 -32724-1 0  9991
2 65898  53.1596 266.7360 0001509 100.1559 148.4773 15.55568191  4669
STARLINK-35272          
1 65899U 25224T   25301.66674769 -.02044509  00000+0 -32851-1 0  9999
2 65899  53.1591 266.7270 0001366  97.8685 154.5963 15.55573091  4651
STARLINK-35264          
1 65900U 25224U   25301.66674769 -.02039831  00000+0 -32770-1 0  9994
2 65900  53.1593 266.7233 0001523 104.0363 150.3460 15.55569694  4654
STARLINK-35249          
1 65901U 25224V   25301.66674769 -.02045920  00000+0 -32877-1 0  9999
2 65901  53.1593 266.7197 0001452 102.7909 153.5089 15.55572053  4640
STARLINK-35278          
1 65902U 25224W   25301.66674769 -.02044292  00000+0 -32849-1 0  9990
2 65902  53.1590 266.7071 0001395 106.6854 155.3655 15.55571334  4669
STARLINK-35210          
1 65903U 25224X   25301.66674769 -.02050220  00000+0 -32951-1 0  9993
2 65903  53.1591 266.7116 0001398 105.5063 154.6253 15.55575075  4644
STARLINK-35348          
1 65904U 25224Y   25301.66674769 -.02042338  00000+0 -32813-1 0  9992
2 65904  53.1594 266.7151 0001415 101.4390 156.7763 15.55571935  4612
STARLINK-35380          
1 65905U 25224Z   25301.66674769 -.02041486  00000+0 -32800-1 0  9992
2 65905  53.1588 266.7044 0001364 106.9964 156.9708 15.55570713  4611
STARLINK-35385          
1 65906U 25224AA  25301.66674769 -.02046498  00000+0 -32888-1 0  9997
2 65906  53.1594 266.6962 0001371 103.4542 164.3471 15.55572369  4641
STARLINK-35347          
1 65907U 25224AB  25301.66674769 -.02048331  00000+0 -32918-1 0  9990
2 65907  53.1593 266.6915 0001346 105.7302 163.9858 15.55574999  4645
STARLINK-35329          
1 65908U 25224AC  25301.66674769 -.02044810  00000+0 -32857-1 0  9991
2 65908  53.1590 266.6994 0001389 109.4320 156.4509 15.55572364  4653
STARLINK-35387          
1 65909U 25224AD  25301.66674769 -.02044418  00000+0 -32853-1 0  9992
2 65909  53.1593 266.6873 0001330 109.3492 162.2863 15.55570912  4619
STARLINK-35523          
1 65910U 25225A   25301.66674769 -.01936174  00000+0 -18597-1 0  9992
2 65910  53.1599  62.1928 0001273  70.0143 116.5010 15.68986349  4187
STARLINK-35160          
1 65911U 25225B   25301.66674769 -.01925637  00000+0 -18491-1 0  9998
2 65911  53.1595  62.1892 0001277  71.3596 117.0804 15.68976284  4133
STARLINK-35508          
1 65912U 25225C   25301.66674769 -.01935676  00000+0 -18592-1 0  9995
2 65912  53.1600  62.1840 0001245  69.7615 120.5876 15.68986093  4139
STARLINK-35472          
1 65913U 25225D   25301.66674769 -.01939039  00000+0 -18626-1 0  9991
2 65913  53.1600  62.1803 0001213  68.9542 123.3091 15.68989356  4173
STARLINK-35524          
1 65914U 25225E   25301.66674769 -.01942165  00000+0 -18657-1 0  9990
2 65914  53.1596  62.1768 0001357  76.2437 117.9352 15.68992284  4186
STARLINK-35539          
1 65915U 25225F   25301.66674769 -.02475939  00000+0 -36410-1 0  9999
2 65915  53.1593  62.3144 0001418  64.7376  61.5733 15.58606480  4137
STARLINK-35521          
1 65916U 25225G   25301.66674769 -.01942158  00000+0 -18657-1 0  9994
2 65916  53.1603  62.1678 0001356  75.2321 122.7801 15.68992483  4181
STARLINK-35478          
1 65917U 25225H   25301.66674769 -.01921093  00000+0 -18447-1 0  9997
2 65917  53.1599  62.1599 0000899  75.2744 126.5856 15.68972685  4137
STARLINK-35516          
1 65918U 25225J   25301.66674769 -.01941032  00000+0 -18646-1 0  9994
2 65918  53.1599  62.1641 0001254  69.2460 130.6826 15.68991737  4187
STARLINK-35519          
1 65919U 25225K   25301.66674769 -.01935025  00000+0 -18586-1 0  9993
2 65919  53.1597  62.1567 0001177  75.1374 128.6294 15.68986250  4187
STARLINK-33902          
1 65920U 25225L   25301.66674769 -.01941463  00000+0 -18651-1 0  9991
2 65920  53.1601  62.1518 0001203  71.0848 134.5943 15.68991890  4174
STARLINK-35530          
1 65921U 25225M   25301.66674769 -.01913454  00000+0 -18369-1 0  9997
2 65921  53.1595  62.1484 0001082  76.9402 130.6771 15.68964012  4132
STARLINK-35544          
1 65922U 25225N   25301.66674769 -.01924206  00000+0 -18476-1 0  9994
2 65922  53.1599  62.1438 0001279  75.1675 134.3588 15.68975007  4185
STARLINK-35484          
1 65923U 25225P   25301.66674769 -.01942950  00000+0 -18665-1 0  9991
2 65923  53.1596  62.1403 0001299  73.4028 138.0263 15.68993178  4180
STARLINK-34994          
1 65924U 25225Q   25301.66674769 -.01942326  00000+0 -18659-1 0  9992
2 65924  53.1594  62.1364 0001281  74.4094 138.9373 15.68992463  4187
STARLINK-35458          
1 65925U 25225R   25301.66674769 -.01940711  00000+0 -18643-1 0  9992
2 65925  53.1594  62.1281 0001306  77.4927 139.6893 15.68990734  4186
STARLINK-35492          
1 65926U 25225S   25301.66674769 -.01941698  00000+0 -18652-1 0  9998
2 65926  53.1595  62.1320 0001356  75.0279 140.2353 15.68992088  4184
STARLINK-35494          
1 65927U 25225T   25301.66674769 -.01937012  00000+0 -18606-1 0  9993
2 65927  53.1598  62.1230 0001232  74.3852 144.7154 15.68987521  4184
STARLINK-35493          
1 65928U 25225U   25301.66674769 -.01934504  00000+0 -18581-1 0  9999
2 65928  53.1599  62.1149 0001176  75.8311 147.1056 15.68984768  4131
STARLINK-35175          
1 65929U 25225V   25301.66674769 -.01937438  00000+0 -18610-1 0  9992
2 65929  53.1595  62.1118 0001320  78.4295 146.4226 15.68987169  4189
STARLINK-35513          
1 65930U 25225W   25301.66674769 -.01938594  00000+0 -18622-1 0  9991
2 65930  53.1598  62.1189 0001194  76.1067 144.9102 15.68988744  4189
STARLINK-35526          
1 65931U 25225X   25301.66674769 -.01936749  00000+0 -18602-1 0  9990
2 65931  53.1597  62.1068 0001351  80.3337 146.4355 15.68986802  4187
STARLINK-35436          
1 65932U 25225Y   25301.66674769 -.01938296  00000+0 -18618-1 0  9997
2 65932  53.1594  62.1039 0001327  75.3172 153.3669 15.68988278  4181
STARLINK-35192          
1 65933U 25225Z   25301.66674769 -.01937198  00000+0 -18609-1 0  9998
2 65933  53.1595  62.0912 0001130  74.5290 159.9059 15.68987503  4181
STARLINK-33921          
1 65934U 25225AA  25301.66674769 -.01900133  00000+0 -18233-1 0  9991
2 65934  53.1593  62.0997 0001246  91.0615 139.5687 15.68951904  4172
STARLINK-35155          
1 65935U 25225AB  25301.66674769 -.01937993  00000+0 -18616-1 0  9991
2 65935  53.1595  62.0954 0001180  74.6706 157.8472 15.68988307  4175
STARLINK-35161          
1 65936U 25225AC  25301.66674769 -.01936054  00000+0 -18596-1 0  9996
2 65936  53.1595  62.0878 0001198  71.0814 165.2700 15.68986860  4181
STARLINK-35473          
1 65937U 25225AD  25301.66674769 -.01934752  00000+0 -18584-1 0  9997
2 65937  53.1595  62.0843 0001147  72.6440 165.6258 15.68985381  4189
2025-226A               
1 65938U 25226A   25301.68417890  .00011747  00000+0  69027-3 0  9998
2 65938  97.6665  15.8656 0014523 220.4645 139.5506 15.11765434  2661
2025-226B               
1 65939U 25226B   25301.63643447  .00007534  00000+0  46974-3 0  9998
2 65939  97.6619  15.7662 0020656 224.3983 135.5591 15.09652020  2640
2025-226C               
1 65940U 25226C   25301.68547616  .00012105  00000+0  71333-3 0  9993
2 65940  97.6574  15.8451 0014482 218.3863 141.6338 15.11654139  2653
